ONEWEB-0275             
1 48993U 21060AC  26166.86148939  .00000077  00000+0  16833-3 0  9998
2 48993  87.9099 229.0389 0001933  95.8835 264.2516 13.16594482239388
ONEWEB-0276             
1 48994U 21060AD  26166.89473148 -.00000048  00000+0 -15930-3 0  9992
2 48994  87.9095 229.0317 0001978  93.2761 266.8597 13.16594659239401
ONEWEB-0277             
1 48995U 21060AE  26166.67941609 -.00000032  00000+0 -11763-3 0  9994
2 48995  87.9090 229.0834 0001901 101.4410 258.6934 13.16593767239368
ONEWEB-0278             
1 48996U 21060AF  26166.59388970 -.00002152  00000+0 -56631-2 0  9999
2 48996  87.9099 229.0906 0002191  99.9216 260.2162 13.16602655239487
ONEWEB-0279             
1 48997U 21060AG  26166.90581698  .00000062  00000+0  12746-3 0  9993
2 48997  87.9097 229.0268 0001783  97.2118 262.9215 13.16594720239453
ONEWEB-0280             
1 48998U 21060AH  26166.92085220  .00000106  00000+0  24260-3 0  9999
2 48998  87.9097 229.0281 0002113 107.8946 252.2416 13.16593549239390
ONEWEB-0281             
1 48999U 21060AJ  26166.92640050  .00000055  00000+0  11077-3 0  9993
2 48999  87.9100 229.0221 0002116  98.5418 261.5953 13.16594625239466
ONEWEB-0282             
1 49000U 21060AK  26166.72847367 -.00000098  00000+0 -29079-3 0  9995
2 49000  87.9098 229.0698 0001982 101.3419 258.7934 13.16592617239419
ONEWEB-0283             
1 49001U 21060AL  26166.86939871  .00000086  00000+0  19120-3 0  9994
2 49001  87.9097 229.0412 0001858  97.4131 262.7211 13.16594151239442
ONEWEB-0284             
1 49002U 21060AM  26166.86307124  .00000057  00000+0  11544-3 0  9995
2 49002  87.9098 229.0358 0002234 105.2578 254.8800 13.16594849239423
ONEWEB-0285             
1 49075U 21075A   26166.91670250 -.00000362  00000+0 -10410-2 0  9991
2 49075  87.8946 350.9144 0001751  92.0402 268.0927 13.12443168235047
ONEWEB-0286             
1 49076U 21075B   26166.97502110  .00000216  00000+0  56454-3 0  9992
2 49076  87.8936 350.9199 0001978  86.4145 273.7210 13.12441930234401
ONEWEB-0287             
1 49077U 21075C   26166.79980037  .00000031  00000+0  47549-4 0  9992
2 49077  87.9134   6.1420 0002261  85.0636 275.0753 13.17649861233444
ONEWEB-0288             
1 49078U 21075D   26166.87520448  .00000340  00000+0  91077-3 0  9995
2 49078  87.8945 350.9163 0002030  92.5213 267.6148 13.12444449235016
ONEWEB-0289             
1 49079U 21075E   26166.83847465 -.00000007  00000+0 -51645-4 0  9993
2 49079  87.9138   6.1510 0001825 100.4687 259.6651 13.17649961234024
ONEWEB-0290             
1 49080U 21075F   26166.96349296  .00000012  00000+0 -14790-5 0  9994
2 49080  87.9143   6.0982 0001808 104.5004 255.6328 13.17648936233457
ONEWEB-0291             
1 49081U 21075G   26166.79643190  .00000062  00000+0  12609-3 0  9995
2 49081  87.9137   6.1386 0002175  93.9480 266.1900 13.17649244233420
ONEWEB-0293             
1 49082U 21075H   26166.97360767  .00000028  00000+0  40169-4 0  9997
2 49082  87.9132   6.1069 0001879  92.7316 267.4031 13.17648529233478
ONEWEB-0294             
1 49083U 21075J   26166.57703306  .00000539  00000+0  14616-2 0  9997
2 49083  87.8946 350.9792 0001817 101.5025 258.6308 13.12444781234369
ONEWEB-0295             
1 49084U 21075K   26166.97276781  .00000039  00000+0  66473-4 0  9999
2 49084  87.9132   6.1111 0002177  89.5729 270.5652 13.17648351233435
ONEWEB-0296             
1 49085U 21075L   26166.93788132 -.00000131  00000+0 -40062-3 0  9994
2 49085  87.8951 350.9147 0002149  94.1232 266.0143 13.12444410234412
ONEWEB-0297             
1 49086U 21075M   26166.96838100  .00000398  00000+0  10715-2 0  9993
2 49086  87.8936 350.9197 0001906  89.8545 270.2802 13.12443286235026
ONEWEB-0298             
1 49087U 21075N   26166.82525210 -.00000003  00000+0 -42134-4 0  9991
2 49087  87.9132   6.1385 0001910  84.1723 275.9626 13.17647520233448
ONEWEB-0299             
1 49088U 21075P   26166.82680496 -.00000062  00000+0 -19412-3 0  9997
2 49088  87.9142   6.1183 0002004  86.3071 273.8290 13.17649276233423
ONEWEB-0300             
1 49089U 21075Q   26166.88451542  .00000441  00000+0  11905-2 0  9999
2 49089  87.8948 350.9155 0001831  78.0660 282.0673 13.12444455235038
ONEWEB-0301             
1 49090U 21075R   26166.79217983  .00000139  00000+0  35212-3 0  9992
2 49090  87.8946 350.9323 0001705  80.1629 279.9692 13.12445039234386
ONEWEB-0302             
1 49091U 21075S   26166.93110584 -.00000338  00000+0 -97520-3 0  9991
2 49091  87.8950 350.9165 0001938  99.9320 260.2028 13.12444201234386
ONEWEB-0304             
1 49092U 21075T   26166.80148926  .00000028  00000+0  38624-4 0  9994
2 49092  87.9133   6.1459 0002020  87.9574 272.1789 13.17649603233392
ONEWEB-0305             
1 49093U 21075U   26166.56693298  .00000026  00000+0  34841-4 0  9990
2 49093  87.9141   6.1766 0002249  86.4017 273.7372 13.17649329233392
ONEWEB-0308             
1 49094U 21075V   26166.92432589 -.00000418  00000+0 -11986-2 0  9995
2 49094  87.8948 350.9098 0001789  90.5103 269.6231 13.12443461234398
