OBJECT_NAME,OBJECT_ID,EPOCH,MEAN_MOTION,ECCENTRICITY,INCLINATION,RA_OF_ASC_NODE,ARG_OF_PERICENTER,MEAN_ANOMALY,EPHEMERIS_TYPE,CLASSIFICATION_TYPE,NORAD_CAT_ID,ELEMENT_SET_NO,REV_AT_EPOCH,BSTAR,MEAN_MOTION_DOT,MEAN_MOTION_DDOT
ONEWEB-0275,2021-060AC,2026-06-15T20:40:32.683296,13.16594482,.00019335,87.9099,229.0389,95.8835,264.2516,0,U,48993,999,23938,.16832941E-3,.77E-6,0
ONEWEB-0276,2021-060AD,2026-06-15T21:28:24.799872,13.16594659,.00019781,87.9095,229.0317,93.2761,266.8597,0,U,48994,999,23940,-.15930361E-3,-.48E-6,0
ONEWEB-0277,2021-060AE,2026-06-15T16:18:21.550176,13.16593767,.00019019,87.9090,229.0834,101.4410,258.6934,0,U,48995,999,23936,-.11762972E-3,-.32E-6,0
ONEWEB-0278,2021-060AF,2026-06-15T14:15:12.070080,13.16602655,.00021913,87.9099,229.0906,99.9216,260.2162,0,U,48996,999,23948,-.56630708E-2,-.2152E-4,0
ONEWEB-0279,2021-060AG,2026-06-15T21:44:22.587072,13.16594720,.00017838,87.9097,229.0268,97.2118,262.9215,0,U,48997,999,23945,.12745988E-3,.62E-6,0
ONEWEB-0280,2021-060AH,2026-06-15T22:06:01.630080,13.16593549,.00021133,87.9097,229.0281,107.8946,252.2416,0,U,48998,999,23939,.24259513E-3,.106E-5,0
ONEWEB-0281,2021-060AJ,2026-06-15T22:14:01.003200,13.16594625,.00021162,87.9100,229.0221,98.5418,261.5953,0,U,48999,999,23946,.11077385E-3,.55E-6,0
ONEWEB-0282,2021-060AK,2026-06-15T17:29:00.125088,13.16592617,.00019824,87.9098,229.0698,101.3419,258.7934,0,U,49000,999,23941,-.29079109E-3,-.98E-6,0
ONEWEB-0283,2021-060AL,2026-06-15T20:51:56.048544,13.16594151,.00018583,87.9097,229.0412,97.4131,262.7211,0,U,49001,999,23944,.19120154E-3,.86E-6,0
ONEWEB-0284,2021-060AM,2026-06-15T20:42:49.355136,13.16594849,.00022343,87.9098,229.0358,105.2578,254.8800,0,U,49002,999,23942,.11543671E-3,.57E-6,0
ONEWEB-0285,2021-075A,2026-06-15T22:00:03.096000,13.12443168,.00017513,87.8946,350.9144,92.0402,268.0927,0,U,49075,999,23504,-.10409529E-2,-.362E-5,0
ONEWEB-0286,2021-075B,2026-06-15T23:24:01.823040,13.12441930,.00019781,87.8936,350.9199,86.4145,273.7210,0,U,49076,999,23440,.56453663E-3,.216E-5,0
ONEWEB-0287,2021-075C,2026-06-15T19:11:42.751968,13.17649861,.00022616,87.9134,6.1420,85.0636,275.0753,0,U,49077,999,23344,.47549416E-4,.31E-6,0
ONEWEB-0288,2021-075D,2026-06-15T21:00:17.667072,13.12444449,.000203,87.8945,350.9163,92.5213,267.6148,0,U,49078,999,23501,.91077435E-3,.34E-5,0
ONEWEB-0289,2021-075E,2026-06-15T20:07:24.209760,13.17649961,.0001825,87.9138,6.1510,100.4687,259.6651,0,U,49079,999,23402,-.51645386E-4,-.7E-7,0
ONEWEB-0290,2021-075F,2026-06-15T23:07:25.791744,13.17648936,.00018085,87.9143,6.0982,104.5004,255.6328,0,U,49080,999,23345,-.1478972E-5,.12E-6,0
ONEWEB-0291,2021-075G,2026-06-15T19:06:51.716160,13.17649244,.00021751,87.9137,6.1386,93.9480,266.1900,0,U,49081,999,23342,.12608864E-3,.62E-6,0
ONEWEB-0293,2021-075H,2026-06-15T23:21:59.702688,13.17648529,.00018796,87.9132,6.1069,92.7316,267.4031,0,U,49082,999,23347,.40168784E-4,.28E-6,0
ONEWEB-0294,2021-075J,2026-06-15T13:50:55.656384,13.12444781,.0001817,87.8946,350.9792,101.5025,258.6308,0,U,49083,999,23436,.146158E-2,.539E-5,0
ONEWEB-0295,2021-075K,2026-06-15T23:20:47.138784,13.17648351,.00021778,87.9132,6.1111,89.5729,270.5652,0,U,49084,999,23343,.66473356E-4,.39E-6,0
ONEWEB-0296,2021-075L,2026-06-15T22:30:32.946048,13.12444410,.00021491,87.8951,350.9147,94.1232,266.0143,0,U,49085,999,23441,-.40061828E-3,-.131E-5,0
ONEWEB-0297,2021-075M,2026-06-15T23:14:28.118400,13.12443286,.00019067,87.8936,350.9197,89.8545,270.2802,0,U,49086,999,23502,.10714607E-2,.398E-5,0
ONEWEB-0298,2021-075N,2026-06-15T19:48:21.781440,13.17647520,.00019103,87.9132,6.1385,84.1723,275.9626,0,U,49087,999,23344,-.42134314E-4,-.3E-7,0
ONEWEB-0299,2021-075P,2026-06-15T19:50:35.948544,13.17649276,.00020049,87.9142,6.1183,86.3071,273.8290,0,U,49088,999,23342,-.19412499E-3,-.62E-6,0
ONEWEB-0300,2021-075Q,2026-06-15T21:13:42.132288,13.12444455,.00018312,87.8948,350.9155,78.0660,282.0673,0,U,49089,999,23503,.11905293E-2,.441E-5,0
ONEWEB-0301,2021-075R,2026-06-15T19:00:44.337312,13.12445039,.00017052,87.8946,350.9323,80.1629,279.9692,0,U,49090,999,23438,.35212368E-3,.139E-5,0
ONEWEB-0302,2021-075S,2026-06-15T22:20:47.544576,13.12444201,.00019384,87.8950,350.9165,99.9320,260.2028,0,U,49091,999,23438,-.97520316E-3,-.338E-5,0
ONEWEB-0304,2021-075T,2026-06-15T19:14:08.672064,13.17649603,.00020207,87.9133,6.1459,87.9574,272.1789,0,U,49092,999,23339,.38624346E-4,.28E-6,0
ONEWEB-0305,2021-075U,2026-06-15T13:36:23.009472,13.17649329,.00022493,87.9141,6.1766,86.4017,273.7372,0,U,49093,999,23339,.34840647E-4,.26E-6,0
ONEWEB-0308,2021-075V,2026-06-15T22:11:01.756896,13.12443461,.00017895,87.8948,350.9098,90.5103,269.6231,0,U,49094,999,23439,-.1198618E-2,-.418E-5,0
